start=new Date('2023-01-26T00:00:00.000Z').valueOf();
sats=[{"NORAD_CAT_ID":"53928","RCS_SIZE":"LARGE","REF_FRAME":"TEME","INCLINATION":"53.2175","OBJECT_NAME":"STARLINK-5009","CENTER_NAME":"EARTH","RA_OF_ASC_NODE":"17.2578","REV_AT_EPOCH":"2001","BSTAR":"0.00003479000000","MEAN_MOTION_DOT":"0.00000266","TLE_LINE2":"2 53928  53.2175  17.2578 0001120  83.9701 276.1419 15.08831906 20018","TLE_LINE1":"1 53928U 22119AU  23025.67203219  .00000266  00000-0  34790-4 0  9995","COUNTRY_CODE":"US","APOAPSIS":"540.545","FILE":"3761360","OBJECT_ID":"2022-119AU","ECCENTRICITY":"0.00011200","OBJECT_TYPE":"PAYLOAD","ARG_OF_PERICENTER":"83.9701","GP_ID":"223720059","TIME_SYSTEM":"UTC","LAUNCH_DATE":"2022-09-24","ELEMENT_SET_NO":"999","MEAN_ANOMALY":"276.1419","SEMIMAJOR_AXIS":"6917.905","SITE":"AFETR","PERIOD":"95.438","MEAN_MOTION_DDOT":"0.0000000000000","MEAN_MOTION":"15.08831906","CLASSIFICATION_TYPE":"U","MEAN_ELEMENT_THEORY":"SGP4","PERIAPSIS":"538.995","EPHEMERIS_TYPE":"0","EPOCH":"2023-01-25T16:07:43.581216","DECAY_DATE":null},{"TLE_LINE1":"1 53929U 22119AV  23025.72261040 -.00000313  00000-0 -15892-5 0  9996","REV_AT_EPOCH":"1988","MEAN_MOTION_DOT":"-0.00000313","TLE_LINE2":"2 53929  53.2186  26.8423 0001295  98.2179 261.8960 15.08834112 19884","BSTAR":"-0.00000158920000","OBJECT_NAME":"STARLINK-5018","RA_OF_ASC_NODE":"26.8423","CENTER_NAME":"EARTH","RCS_SIZE":"LARGE","REF_FRAME":"TEME","NORAD_CAT_ID":"53929","INCLINATION":"53.2186","PERIAPSIS":"538.868","MEAN_ELEMENT_THEORY":"SGP4","CLASSIFICATION_TYPE":"U","EPOCH":"2023-01-25T17:20:33.538560","DECAY_DATE":null,"EPHEMERIS_TYPE":"0","PERIOD":"95.438","MEAN_MOTION_DDOT":"0.0000000000000","MEAN_MOTION":"15.08834112","SEMIMAJOR_AXIS":"6917.898","ELEMENT_SET_NO":"999","LAUNCH_DATE":"2022-09-24","MEAN_ANOMALY":"261.8960","SITE":"AFETR","APOAPSIS":"540.659","FILE":"3761360","COUNTRY_CODE":"US","GP_ID":"223720809","ARG_OF_PERICENTER":"98.2179","TIME_SYSTEM":"UTC","OBJECT_ID":"2022-119AV","ECCENTRICITY":"0.00012950","OBJECT_TYPE":"PAYLOAD"},{"TLE_LINE2":"2 53930  53.2185  18.3620 0001191  87.9892 272.1237 15.08841831 19970","MEAN_MOTION_DOT":"0.00000260","BSTAR":"0.00003440700000","REV_AT_EPOCH":"1997","TLE_LINE1":"1 53930U 22119AW  23025.39328099  .00000260  00000-0  34407-4 0  9990","INCLINATION":"53.2185","REF_FRAME":"TEME","RCS_SIZE":"LARGE","NORAD_CAT_ID":"53930","RA_OF_ASC_NODE":"18.3620","CENTER_NAME":"EARTH","OBJECT_NAME":"STARLINK-5010","MEAN_MOTION":"15.08841831","MEAN_MOTION_DDOT":"0.0000000000000","PERIOD":"95.437","DECAY_DATE":null,"EPOCH":"2023-01-25T09:26:19.477536","EPHEMERIS_TYPE":"0","PERIAPSIS":"538.916","MEAN_ELEMENT_THEORY":"SGP4","CLASSIFICATION_TYPE":"U","TIME_SYSTEM":"UTC","GP_ID":"223691259","ARG_OF_PERICENTER":"87.9892","OBJECT_TYPE":"PAYLOAD","ECCENTRICITY":"0.00011910","OBJECT_ID":"2022-119AW","FILE":"3761297","APOAPSIS":"540.564","COUNTRY_CODE":"US","SITE":"AFETR","SEMIMAJOR_AXIS":"6917.875","MEAN_ANOMALY":"272.1237","ELEMENT_SET_NO":"999","LAUNCH_DATE":"2022-09-24"},{"BSTAR":"-0.05319800000000","TLE_LINE2":"2 53931  53.2107  11.0632 0001283  97.3984 208.0722 15.14219851  1300","MEAN_MOTION_DOT":"-0.00910720","REV_AT_EPOCH":"130","TLE_LINE1":"1 53931U 22119AX  23025.91667824 -.00910720  00000-0 -53198-1 0  9999","INCLINATION":"53.2107","NORAD_CAT_ID":"53931","REF_FRAME":"TEME","RCS_SIZE":"LARGE","CENTER_NAME":"EARTH","RA_OF_ASC_NODE":"11.0632","OBJECT_NAME":"STARLINK-5015","MEAN_MOTION":"15.14219851","MEAN_MOTION_DDOT":"0.0000000000000","PERIOD":"95.098","EPHEMERIS_TYPE":"0","DECAY_DATE":null,"EPOCH":"2023-01-25T22:00:00.999936","CLASSIFICATION_TYPE":"U","PERIAPSIS":"522.465","MEAN_ELEMENT_THEORY":"SGP4","OBJECT_TYPE":"PAYLOAD","OBJECT_ID":"2022-119AX","ECCENTRICITY":"0.00012830","TIME_SYSTEM":"UTC","ARG_OF_PERICENTER":"97.3984","GP_ID":"223719807","COUNTRY_CODE":"US","FILE":"3761360","APOAPSIS":"524.236","SITE":"AFETR","MEAN_ANOMALY":"208.0722","LAUNCH_DATE":"2022-09-24","ELEMENT_SET_NO":"999","SEMIMAJOR_AXIS":"6901.485"},{"EPHEMERIS_TYPE":"0","DECAY_DATE":null,"EPOCH":"2023-01-25T22:00:00.999936","CLASSIFICATION_TYPE":"U","PERIAPSIS":"538.616","MEAN_ELEMENT_THEORY":"SGP4","MEAN_MOTION_DDOT":"0.0000000000000","MEAN_MOTION":"15.08818573","PERIOD":"95.439","SITE":"AFETR","MEAN_ANOMALY":"328.7481","LAUNCH_DATE":"2022-09-24","ELEMENT_SET_NO":"999","SEMIMAJOR_AXIS":"6917.946","OBJECT_TYPE":"PAYLOAD","ECCENTRICITY":"0.00017270","OBJECT_ID":"2022-119AY","TIME_SYSTEM":"UTC","GP_ID":"223720559","ARG_OF_PERICENTER":"103.0870","COUNTRY_CODE":"US","FILE":"3761360","APOAPSIS":"541.006","TLE_LINE1":"1 53932U 22119AY  23025.91667824  .00057519  00000-0  36049-2 0  9993","BSTAR":"0.00360490000000","TLE_LINE2":"2 53932  53.2145  11.5154 0001727 103.0870 328.7481 15.08818573  1300","MEAN_MOTION_DOT":"0.00057519","REV_AT_EPOCH":"130","CENTER_NAME":"EARTH","RA_OF_ASC_NODE":"11.5154","OBJECT_NAME":"STARLINK-4772","INCLINATION":"53.2145","NORAD_CAT_ID":"53932","REF_FRAME":"TEME","RCS_SIZE":"LARGE"},{"APOAPSIS":"540.567","FILE":"3761297","COUNTRY_CODE":"US","ARG_OF_PERICENTER":"87.3248","GP_ID":"223691011","TIME_SYSTEM":"UTC","OBJECT_ID":"2022-119AZ","ECCENTRICITY":"0.00012190","OBJECT_TYPE":"PAYLOAD","SEMIMAJOR_AXIS":"6917.858","LAUNCH_DATE":"2022-09-24","ELEMENT_SET_NO":"999","MEAN_ANOMALY":"272.7884","SITE":"AFETR","PERIOD":"95.437","MEAN_MOTION_DDOT":"0.0000000000000","MEAN_MOTION":"15.08847222","PERIAPSIS":"538.880","MEAN_ELEMENT_THEORY":"SGP4","CLASSIFICATION_TYPE":"U","EPOCH":"2023-01-25T06:30:06.086592","DECAY_DATE":null,"EPHEMERIS_TYPE":"0","RCS_SIZE":"LARGE","REF_FRAME":"TEME","NORAD_CAT_ID":"53933","INCLINATION":"53.2167","OBJECT_NAME":"STARLINK-4782","RA_OF_ASC_NODE":"19.0203","CENTER_NAME":"EARTH","REV_AT_EPOCH":"1995","MEAN_MOTION_DOT":"0.00003912","TLE_LINE2":"2 53933  53.2167  19.0203 0001219  87.3248 272.7884 15.08847222 19950","BSTAR":"0.00026370000000","TLE_LINE1":"1 53933U 22119AZ  23025.27090378  .00003912  00000-0  26370-3 0  9992"},{"PERIAPSIS":"538.651","MEAN_ELEMENT_THEORY":"SGP4","CLASSIFICATION_TYPE":"U","DECAY_DATE":null,"EPOCH":"2023-01-25T22:00:00.999936","EPHEMERIS_TYPE":"0","PERIOD":"95.438","MEAN_MOTION_DDOT":"0.0000000000000","MEAN_MOTION":"15.08830375","SEMIMAJOR_AXIS":"6917.910","MEAN_ANOMALY":"93.7714","LAUNCH_DATE":"2022-09-24","ELEMENT_SET_NO":"999","SITE":"AFETR","FILE":"3761360","APOAPSIS":"540.898","COUNTRY_CODE":"US","TIME_SYSTEM":"UTC","ARG_OF_PERICENTER":"98.2249","GP_ID":"223719058","OBJECT_TYPE":"PAYLOAD","ECCENTRICITY":"0.00016240","OBJECT_ID":"2022-119BA","TLE_LINE1":"1 53934U 22119BA  23025.91667824  .00053466  00000-0  33530-2 0  9994","REV_AT_EPOCH":"130","TLE_LINE2":"2 53934  53.2108  11.2790 0001624  98.2249  93.7714 15.08830375  1307","MEAN_MOTION_DOT":"0.00053466","BSTAR":"0.00335300000000","OBJECT_NAME":"STARLINK-4775","RA_OF_ASC_NODE":"11.2790","CENTER_NAME":"EARTH","REF_FRAME":"TEME","RCS_SIZE":"LARGE","NORAD_CAT_ID":"53934","INCLINATION":"53.2108"},{"CLASSIFICATION_TYPE":"U","MEAN_ELEMENT_THEORY":"SGP4","PERIAPSIS":"399.076","EPHEMERIS_TYPE":"0","EPOCH":"2023-01-25T22:00:00.999936","DECAY_DATE":null,"PERIOD":"92.559","MEAN_MOTION":"15.55771252","MEAN_MOTION_DDOT":"0.0000000000000","ELEMENT_SET_NO":"999","LAUNCH_DATE":"2022-09-24","MEAN_ANOMALY":"346.6984","SEMIMAJOR_AXIS":"6778.049","SITE":"AFETR","COUNTRY_CODE":"US","APOAPSIS":"400.751","FILE":"3761360","OBJECT_ID":"2022-119BB","ECCENTRICITY":"0.00012360","OBJECT_TYPE":"PAYLOAD","ARG_OF_PERICENTER":"88.6414","GP_ID":"223719308","TIME_SYSTEM":"UTC","TLE_LINE1":"1 53935U 22119BB  23025.91667824 -.00907460  00000-0 -14222-1 0  9995","REV_AT_EPOCH":"130","BSTAR":"-0.01422200000000","MEAN_MOTION_DOT":"-0.00907460","TLE_LINE2":"2 53935  53.2102   5.0455 0001236  88.6414 346.6984 15.55771252  1306","OBJECT_NAME":"STARLINK-5000","CENTER_NAME":"EARTH","RA_OF_ASC_NODE":"5.0455","NORAD_CAT_ID":"53935","RCS_SIZE":"LARGE","REF_FRAME":"TEME","INCLINATION":"53.2102"},{"TLE_LINE1":"1 53936U 22119BC  23025.91667824  .00016021  00000-0  10226-2 0  9999","REV_AT_EPOCH":"130","BSTAR":"0.00102260000000","MEAN_MOTION_DOT":"0.00016021","TLE_LINE2":"2 53936  53.2146  11.0454 0001823  96.2019 215.9400 15.08832748  1306","OBJECT_NAME":"STARLINK-4791","CENTER_NAME":"EARTH","RA_OF_ASC_NODE":"11.0454","NORAD_CAT_ID":"53936","RCS_SIZE":"LARGE","REF_FRAME":"TEME","INCLINATION":"53.2146","CLASSIFICATION_TYPE":"U","MEAN_ELEMENT_THEORY":"SGP4","PERIAPSIS":"538.506","EPHEMERIS_TYPE":"0","EPOCH":"2023-01-25T22:00:00.999936","DECAY_DATE":null,"PERIOD":"95.438","MEAN_MOTION":"15.08832748","MEAN_MOTION_DDOT":"0.0000000000000","LAUNCH_DATE":"2022-09-24","ELEMENT_SET_NO":"999","MEAN_ANOMALY":"215.9400","SEMIMAJOR_AXIS":"6917.903","SITE":"AFETR","COUNTRY_CODE":"US","APOAPSIS":"541.029","FILE":"3761360","OBJECT_ID":"2022-119BC","ECCENTRICITY":"0.00018230","OBJECT_TYPE":"PAYLOAD","GP_ID":"223720060","ARG_OF_PERICENTER":"96.2019","TIME_SYSTEM":"UTC"},{"SITE":"AFETR","SEMIMAJOR_AXIS":"6840.444","LAUNCH_DATE":"2022-09-24","ELEMENT_SET_NO":"999","MEAN_ANOMALY":"172.2098","ARG_OF_PERICENTER":"98.1829","GP_ID":"223720810","TIME_SYSTEM":"UTC","ECCENTRICITY":"0.00014450","OBJECT_ID":"2022-119BD","OBJECT_TYPE":"PAYLOAD","APOAPSIS":"463.297","FILE":"3761360","COUNTRY_CODE":"US","EPOCH":"2023-01-25T22:00:00.999936","DECAY_DATE":null,"EPHEMERIS_TYPE":"0","PERIAPSIS":"461.321","MEAN_ELEMENT_THEORY":"SGP4","CLASSIFICATION_TYPE":"U","MEAN_MOTION":"15.34533332","MEAN_MOTION_DDOT":"0.0000000000000","PERIOD":"93.840","RA_OF_ASC_NODE":"7.5470","CENTER_NAME":"EARTH","OBJECT_NAME":"STARLINK-4765","INCLINATION":"53.2154","RCS_SIZE":"LARGE","REF_FRAME":"TEME","NORAD_CAT_ID":"53937","TLE_LINE1":"1 53937U 22119BD  23025.91667824 -.00904842  00000-0 -29048-1 0  9990","MEAN_MOTION_DOT":"-0.00904842","TLE_LINE2":"2 53937  53.2154   7.5470 0001445  98.1829 172.2098 15.34533332  1308","BSTAR":"-0.02904800000000","REV_AT_EPOCH":"130"}];
